NORAD_CAT_ID,OBJECT_NAME,OBJECT_TYPE,EPOCH,MEAN_MOTION,ECCENTRICITY,INCLINATION,RA_OF_ASC_NODE,ARG_OF_PERICENTER,MEAN_ANOMALY,BSTAR,MEAN_MOTION_DOT,MEAN_MOTION_DDOT,TLE_LINE0,TLE_LINE1,TLE_LINE2,SEMIMAJOR_AXIS,PERIOD,APOGEE,PERIGEE,DECAYED
54010.0,STARLINK-5127,PAYLOAD,2023-10-05 13:26:25,15.08852411,0.0001098,53.2153,221.6848,91.0771,269.0347,0.00030855,4.628e-05,0.0,0 STARLINK-5127,1 54010U 22125AY  23278.56001228  .00004628  00000-0  30855-3 0  9992,2 54010  53.2153 221.6848 0001098  91.0771 269.0347 15.08852411 55832,6917.842,95.437,540.467,538.948,0.0
54010.0,STARLINK-5127,PAYLOAD,2023-10-06 02:09:30,15.08845577,7.69e-05,53.2175,219.3049,90.0335,270.0746,6.1511e-05,6.92e-06,0.0,0 STARLINK-5127,1 54010U 22125AY  23279.08993171  .00000692  00000-0  61511-4 0  9998,2 54010  53.2175 219.3049 0000769  90.0335 270.0746 15.08845577 55966,6917.863,95.437,540.26,539.196,0.0
54010.0,STARLINK-5127,PAYLOAD,2023-10-06 05:20:17,15.08829045,0.0001242,53.2158,218.7107,85.182,274.9314,-0.00011395,-2.1e-05,0.0,0 STARLINK-5127,1 54010U 22125AY  23279.22242205 -.00002100  00000-0 -11395-3 0  9991,2 54010  53.2158 218.7107 0001242  85.1820 274.9314 15.08829045 55984,6917.914,95.438,540.638,538.92,0.0
54010.0,STARLINK-5127,PAYLOAD,2023-10-06 13:17:13,15.08826365,0.0001347,53.2162,217.2239,79.6852,280.4292,-0.00014923,-2.661e-05,0.0,0 STARLINK-5127,1 54010U 22125AY  23279.55362636 -.00002661  00000-0 -14923-3 0  9990,2 54010  53.2162 217.2239 0001347  79.6852 280.4292 15.08826365 55987,6917.922,95.438,540.719,538.855,0.0
54010.0,STARLINK-5127,PAYLOAD,2023-10-07 02:00:17,15.08840744,0.0001097,53.2159,214.8465,87.0443,273.0674,-8.6669e-06,-4.26e-06,0.0,0 STARLINK-5127,1 54010U 22125AY  23280.08354158 -.00000426  00000-0 -86669-5 0  9995,2 54010  53.2159 214.8465 0001097  87.0443 273.0674 15.08840744 56113,6917.878,95.438,540.502,538.984,0.0
54010.0,STARLINK-5127,PAYLOAD,2023-10-07 05:11:04,15.08840167,0.0001049,53.216,214.2512,86.3518,273.7595,7.3142e-05,8.76e-06,0.0,0 STARLINK-5127,1 54010U 22125AY  23280.21602208  .00000876  00000-0  73142-4 0  9990,2 54010  53.2160 214.2512 0001049  86.3518 273.7595 15.08840167 56088,6917.88,95.438,540.471,539.019,0.0
54010.0,STARLINK-5127,PAYLOAD,2023-10-08 05:01:51,15.08847747,0.0001246,53.2153,209.7866,117.7492,242.3627,0.00045983,7.039e-05,0.0,0 STARLINK-5127,1 54010U 22125AY  23281.20961917  .00007039  00000-0  45983-3 0  9994,2 54010  53.2153 209.7866 0001246 117.7492 242.3627 15.08847747 56281,6917.857,95.437,540.584,538.86,0.0
54010.0,STARLINK-5127,PAYLOAD,2023-10-08 12:58:46,15.08847548,0.0001187,53.2167,208.3013,104.9517,255.1607,0.00032938,4.959e-05,0.0,0 STARLINK-5127,1 54010U 22125AY  23281.54081884  .00004959  00000-0  32938-3 0  9991,2 54010  53.2167 208.3013 0001187 104.9517 255.1607 15.08847548 56284,6917.857,95.437,540.543,538.901,0.0
54010.0,STARLINK-5127,PAYLOAD,2023-10-09 01:41:51,15.08853365,0.0001455,53.2167,205.9224,100.2199,259.8957,0.00020769,3.02e-05,0.0,0 STARLINK-5127,1 54010U 22125AY  23282.07073489  .00003020  00000-0  20769-3 0  9999,2 54010  53.2167 205.9224 0001455 100.2199 259.8957 15.08853365 56412,6917.84,95.437,540.711,538.698,0.0
54010.0,STARLINK-5127,PAYLOAD,2023-10-09 04:52:37,15.08856142,0.0001551,53.2171,205.3269,99.7223,260.3945,0.00027332,4.066e-05,0.0,0 STARLINK-5127,1 54010U 22125AY  23282.20321365  .00004066  00000-0  27332-3 0  9997,2 54010  53.2171 205.3269 0001551  99.7223 260.3945 15.08856142 56383,6917.831,95.437,540.769,538.623,0.0
54010.0,STARLINK-5127,PAYLOAD,2023-10-09 19:11:06,15.08838407,0.0001599,53.2171,202.6523,97.7908,262.3266,-0.0001467,-2.622e-05,0.0,0 STARLINK-5127,1 54010U 22125AY  23282.79938171 -.00002622  00000-0 -14670-3 0  9999,2 54010  53.2171 202.6523 0001599  97.7908 262.3266 15.08838407 56524,6917.885,95.438,540.856,538.644,0.0
54010.0,STARLINK-5127,PAYLOAD,2023-10-10 11:04:58,15.0883763,0.0001445,53.2172,199.6781,83.6256,276.4901,0.00023134,3.396e-05,0.0,0 STARLINK-5127,1 54010U 22125AY  23283.46178463  .00003396  00000-0  23134-3 0  9996,2 54010  53.2172 199.6781 0001445  83.6256 276.4901 15.08837630 56570,6917.888,95.438,540.752,538.753,0.0
54010.0,STARLINK-5127,PAYLOAD,2023-10-10 22:12:40,15.08834836,0.0001398,53.2179,197.5973,88.4289,271.6863,0.00024522,3.616e-05,0.0,0 STARLINK-5127,1 54010U 22125AY  23283.92546790  .00003616  00000-0  24522-3 0  9996,2 54010  53.2179 197.5973 0001398  88.4289 271.6863 15.08834836 56640,6917.896,95.438,540.728,538.794,0.0
54010.0,STARLINK-5127,PAYLOAD,2023-10-11 02:58:49,15.08840857,0.0001461,53.217,196.7053,83.8485,276.2674,0.00057576,8.887e-05,0.0,0 STARLINK-5127,1 54010U 22125AY  23284.12418680  .00008887  00000-0  57576-3 0  9995,2 54010  53.2170 196.7053 0001461  83.8485 276.2674 15.08840857 56729,6917.878,95.438,540.753,538.732,0.0
54010.0,STARLINK-5127,PAYLOAD,2023-10-11 10:55:45,15.08847162,0.0001506,53.2174,195.2191,83.1979,276.9184,0.00072322,0.00011243,0.0,0 STARLINK-5127,1 54010U 22125AY  23284.45538629  .00011243  00000-0  72322-3 0  9993,2 54010  53.2174 195.2191 0001506  83.1979 276.9184 15.08847162 56720,6917.858,95.437,540.765,538.682,0.0
54010.0,STARLINK-5127,PAYLOAD,2023-10-11 18:52:41,15.08819512,0.0001122,53.2177,193.7314,73.6774,286.4341,-0.00015239,-2.711e-05,0.0,0 STARLINK-5127,1 54010U 22125AY  23284.78659042 -.00002711  00000-0 -15239-3 0  9998,2 54010  53.2177 193.7314 0001122  73.6774 286.4341 15.08819512 56824,6917.943,95.439,540.584,539.032,0.0
54010.0,STARLINK-5127,PAYLOAD,2023-10-12 02:49:36,15.08852576,0.0001469,53.2162,192.2468,93.7712,266.3448,0.00095301,0.00014917,0.0,0 STARLINK-5127,1 54010U 22125AY  23285.11778889  .00014917  00000-0  95301-3 0  9994,2 54010  53.2162 192.2468 0001469  93.7712 266.3448 15.08852576 56878,6917.842,95.437,540.723,538.691,0.0
54010.0,STARLINK-5127,PAYLOAD,2023-10-12 10:46:32,15.088459,0.0001445,53.2157,190.7601,84.7123,275.4034,0.00070917,0.00011018,0.0,0 STARLINK-5127,1 54010U 22125AY  23285.44899109  .00011018  00000-0  70917-3 0  9994,2 54010  53.2157 190.7601 0001445  84.7123 275.4034 15.08845900 56925,6917.862,95.437,540.727,538.728,0.0
54010.0,STARLINK-5127,PAYLOAD,2023-10-12 21:54:14,15.08850786,0.0001701,53.2153,188.6798,85.6587,274.4599,0.00055354,8.535e-05,0.0,0 STARLINK-5127,1 54010U 22125AY  23285.91266961  .00008535  00000-0  55354-3 0  9998,2 54010  53.2153 188.6798 0001701  85.6587 274.4599 15.08850786 56948,6917.847,95.437,540.889,538.536,0.0
54010.0,STARLINK-5127,PAYLOAD,2023-10-13 02:40:23,15.08882077,0.0001378,53.2164,187.7848,83.0153,277.0995,0.001408,0.00022217,0.0,0 STARLINK-5127,1 54010U 22125AY  23286.11137945  .00022217  00000-0  14080-2 0  9993,2 54010  53.2164 187.7848 0001378  83.0153 277.0995 15.08882077 57024,6917.752,95.435,540.57,538.664,0.0
54010.0,STARLINK-5127,PAYLOAD,2023-10-13 10:37:19,15.08852454,0.0001224,53.2166,186.2983,94.9406,265.1726,0.00029859,4.469e-05,0.0,0 STARLINK-5127,1 54010U 22125AY  23286.44258198  .00004469  00000-0  29859-3 0  9993,2 54010  53.2166 186.2983 0001224  94.9406 265.1726 15.08852454 57073,6917.842,95.437,540.554,538.861,0.0
54010.0,STARLINK-5127,PAYLOAD,2023-10-13 21:45:00,15.08847731,0.0001125,53.2157,184.219,118.6581,241.4524,0.000207,3.009e-05,0.0,0 STARLINK-5127,1 54010U 22125AY  23286.90626113  .00003009  00000-0  20700-3 0  9995,2 54010  53.2157 184.2190 0001125 118.6581 241.4524 15.08847731 57096,6917.857,95.437,540.5,538.943,0.0
54010.0,STARLINK-5127,PAYLOAD,2023-10-14 10:28:06,15.08834413,0.0001509,53.2148,181.8401,86.829,273.2875,0.00062449,9.663e-05,0.0,0 STARLINK-5127,1 54010U 22125AY  23287.43618862  .00009663  00000-0  62449-3 0  9994,2 54010  53.2148 181.8401 0001509  86.8290 273.2875 15.08834413 57223,6917.897,95.438,540.806,538.719,0.0
54010.0,STARLINK-5127,PAYLOAD,2023-10-14 21:35:49,15.08825477,0.0001338,53.2152,179.7579,103.3314,256.7827,0.00012032,1.627e-05,0.0,0 STARLINK-5127,1 54010U 22125AY  23287.89987389  .00001627  00000-0  12032-3 0  9992,2 54010  53.2152 179.7579 0001338 103.3314 256.7827 15.08825477 57247,6917.925,95.438,540.715,538.864,0.0
54010.0,STARLINK-5127,PAYLOAD,2023-10-15 02:21:58,15.08833312,0.0001518,53.2155,178.8635,104.1371,255.979,0.00034321,5.177e-05,0.0,0 STARLINK-5127,1 54010U 22125AY  23288.09859449  .00005177  00000-0  34321-3 0  9999,2 54010  53.2155 178.8635 0001518 104.1371 255.9790 15.08833312 57321,6917.901,95.438,540.816,538.716,0.0
54010.0,STARLINK-5127,PAYLOAD,2023-10-15 10:18:54,15.08832438,0.000137,53.2149,177.3783,96.9263,263.1885,0.00031111,4.666e-05,0.0,0 STARLINK-5127,1 54010U 22125AY  23288.42979788  .00004666  00000-0  31111-3 0  9991,2 54010  53.2149 177.3783 0001370  96.9263 263.1885 15.08832438 57320,6917.904,95.438,540.716,538.821,0.0
54010.0,STARLINK-5127,PAYLOAD,2023-10-15 21:26:36,15.08840801,0.0001356,53.2155,175.297,86.3306,273.7841,0.00045647,6.984e-05,0.0,0 STARLINK-5127,1 54010U 22125AY  23288.89347919  .00006984  00000-0  45647-3 0  9991,2 54010  53.2155 175.2970 0001356  86.3306 273.7841 15.08840801 57396,6917.878,95.438,540.681,538.805,0.0
54010.0,STARLINK-5127,PAYLOAD,2023-10-16 03:48:08,15.08851341,0.0001364,53.2154,174.1067,92.3638,267.7511,0.00077518,0.00012074,0.0,0 STARLINK-5127,1 54010U 22125AY  23289.15843626  .00012074  00000-0  77518-3 0  9996,2 54010  53.2154 174.1067 0001364  92.3638 267.7511 15.08851341 57482,6917.846,95.437,540.654,538.767,0.0
54010.0,STARLINK-5127,PAYLOAD,2023-10-16 16:31:14,15.08841684,0.0001451,53.2151,171.7291,85.3537,274.7621,0.00017452,2.491e-05,0.0,0 STARLINK-5127,1 54010U 22125AY  23289.68835800  .00002491  00000-0  17452-3 0  9992,2 54010  53.2151 171.7291 0001451  85.3537 274.7621 15.08841684 57566,6917.875,95.437,540.744,538.736,0.0
54010.0,STARLINK-5127,PAYLOAD,2023-10-18 00:18:56,15.08845399,0.0001452,53.2156,165.779,83.0753,277.0404,4.2847e-05,3.94e-06,0.0,0 STARLINK-5127,1 54010U 22125AY  23291.01315214  .00000394  00000-0  42847-4 0  9991,2 54010  53.2156 165.7790 0001452  83.0753 277.0404 15.08845399 57713,6917.864,95.437,540.733,538.724,0.0
